{
  "type": "FeatureCollection",
  "features": [
    {
      "type": "Feature",
      "properties": {
        "norad_id": 24946,
        "name": "IRIDIUM 33",
        "group": "iridium-33-debris",
        "lat": -14.446744085637928,
        "lon": -108.18430155946182,
        "alt_km": 775.7844351950553,
        "timestamp": "2025-12-06T09:34:17.298989+00:00",
        "meta_object_name": "IRIDIUM 33",
        "meta_object_id": "1997-051C",
        "meta_epoch": "2025-12-05T22:37:37.704000",
        "meta_mean_motion": 14.3502972,
        "meta_eccentricity": 0.00063348,
        "meta_inclination": 86.3871,
        "meta_ra_of_asc_node": 71.0744,
        "meta_arg_of_pericenter": 226.2676,
        "meta_mean_anomaly": 133.7996,
        "meta_ephemeris_type": 0,
        "meta_classification_type": "U",
        "meta_norad_cat_id": 24946,
        "meta_element_set_no": 999,
        "meta_rev_at_epoch": 47737,
        "meta_bstar": 0.00023124953,
        "meta_mean_motion_dot": 6.78e-06,
        "meta_mean_motion_ddot": 0,
        "tle_line1": "1 24946U 97051C   25339.94279750  .00000678  00000+0  23125-3 0  9998",
        "tle_line2": "2 24946  86.3871  71.0744 0006334 226.2676 133.7996 14.35029720477379"
      },
      "geometry": {
        "type": "Point",
        "coordinates": [
          -108.18430155946182,
          -14.446744085637928
        ]
      }
    },
    {
      "type": "Feature",
      "properties": {
        "norad_id": 33773,
        "name": "IRIDIUM 33 DEB",
        "group": "iridium-33-debris",
        "lat": -35.77402288659557,
        "lon": 60.67718615639234,
        "alt_km": 762.0015021200115,
        "timestamp": "2025-12-06T09:34:17.299016+00:00",
        "meta_object_name": "IRIDIUM 33 DEB",
        "meta_object_id": "1997-051L",
        "meta_epoch": "2025-12-05T15:26:01.415616",
        "meta_mean_motion": 14.43232888,
        "meta_eccentricity": 0.00117395,
        "meta_inclination": 86.4014,
        "meta_ra_of_asc_node": 63.5962,
        "meta_arg_of_pericenter": 168.1079,
        "meta_mean_anomaly": 192.0401,
        "meta_ephemeris_type": 0,
        "meta_classification_type": "U",
        "meta_norad_cat_id": 33773,
        "meta_element_set_no": 999,
        "meta_rev_at_epoch": 88245,
        "meta_bstar": 0.00063628745,
        "meta_mean_motion_dot": 2.161e-05,
        "meta_mean_motion_ddot": 0,
        "tle_line1": "1 33773U 97051L   25339.64307194  .00002161  00000+0  63629-3 0  9999",
        "tle_line2": "2 33773  86.4014  63.5962 0011739 168.1079 192.0401 14.43232888882459"
      },
      "geometry": {
        "type": "Point",
        "coordinates": [
          60.67718615639234,
          -35.77402288659557
        ]
      }
    },
    {
      "type": "Feature",
      "properties": {
        "norad_id": 33775,
        "name": "IRIDIUM 33 DEB",
        "group": "iridium-33-debris",
        "lat": 85.98628678367344,
        "lon": 117.24121344347252,
        "alt_km": 745.6069743891785,
        "timestamp": "2025-12-06T09:34:17.299031+00:00",
        "meta_object_name": "IRIDIUM 33 DEB",
        "meta_object_id": "1997-051N",
        "meta_epoch": "2025-12-05T17:05:17.332224",
        "meta_mean_motion": 14.41444642,
        "meta_eccentricity": 0.00134808,
        "meta_inclination": 86.3642,
        "meta_ra_of_asc_node": 52.5534,
        "meta_arg_of_pericenter": 176.816,
        "meta_mean_anomaly": 309.9384,
        "meta_ephemeris_type": 0,
        "meta_classification_type": "U",
        "meta_norad_cat_id": 33775,
        "meta_element_set_no": 999,
        "meta_rev_at_epoch": 88039,
        "meta_bstar": 0.00063125965,
        "meta_mean_motion_dot": 2.068e-05,
        "meta_mean_motion_ddot": 0,
        "tle_line1": "1 33775U 97051N   25339.71200616  .00002068  00000+0  63126-3 0  9998",
        "tle_line2": "2 33775  86.3642  52.5534 0013480 176.8160 309.9384 14.41444642880393"
      },
      "geometry": {
        "type": "Point",
        "coordinates": [
          117.24121344347252,
          85.98628678367344
        ]
      }
    },
    {
      "type": "Feature",
      "properties": {
        "norad_id": 33776,
        "name": "IRIDIUM 33 DEB",
        "group": "iridium-33-debris",
        "lat": 31.66129909678223,
        "lon": 85.66121020273724,
        "alt_km": 772.3936685992694,
        "timestamp": "2025-12-06T09:34:17.299060+00:00",
        "meta_object_name": "IRIDIUM 33 DEB",
        "meta_object_id": "1997-051P",
        "meta_epoch": "2025-12-05T20:37:14.618208",
        "meta_mean_motion": 14.38213878,
        "meta_eccentricity": 0.00135953,
        "meta_inclination": 86.4037,
        "meta_ra_of_asc_node": 83.6651,
        "meta_arg_of_pericenter": 214.0319,
        "meta_mean_anomaly": 265.6739,
        "meta_ephemeris_type": 0,
        "meta_classification_type": "U",
        "meta_norad_cat_id": 33776,
        "meta_element_set_no": 999,
        "meta_rev_at_epoch": 87983,
        "meta_bstar": 0.00056235874,
        "meta_mean_motion_dot": 1.728e-05,
        "meta_mean_motion_ddot": 0,
        "tle_line1": "1 33776U 97051P   25339.85919697  .00001728  00000+0  56236-3 0  9996",
        "tle_line2": "2 33776  86.4037  83.6651 0013595 214.0319 265.6739 14.38213878879836"
      },
      "geometry": {
        "type": "Point",
        "coordinates": [
          85.66121020273724,
          31.66129909678223
        ]
      }
    },
    {
      "type": "Feature",
      "properties": {
        "norad_id": 33777,
        "name": "IRIDIUM 33 DEB",
        "group": "iridium-33-debris",
        "lat": 35.859562820917084,
        "lon": -144.66137570892337,
        "alt_km": 707.8239886287593,
        "timestamp": "2025-12-06T09:34:17.299072+00:00",
        "meta_object_name": "IRIDIUM 33 DEB",
        "meta_object_id": "1997-051Q",
        "meta_epoch": "2025-12-05T21:21:43.880544",
        "meta_mean_motion": 14.55534379,
        "meta_eccentricity": 0.00050979,
        "meta_inclination": 86.3791,
        "meta_ra_of_asc_node": 38.1831,
        "meta_arg_of_pericenter": 281.3229,
        "meta_mean_anomaly": 78.7406,
        "meta_ephemeris_type": 0,
        "meta_classification_type": "U",
        "meta_norad_cat_id": 33777,
        "meta_element_set_no": 999,
        "meta_rev_at_epoch": 88434,
        "meta_bstar": 0.001538328,
        "meta_mean_motion_dot": 6.721e-05,
        "meta_mean_motion_ddot": 0,
        "tle_line1": "1 33777U 97051Q   25339.89009121  .00006721  00000+0  15383-2 0  9998",
        "tle_line2": "2 33777  86.3791  38.1831 0005097 281.3229  78.7406 14.55534379884340"
      },
      "geometry": {
        "type": "Point",
        "coordinates": [
          -144.66137570892337,
          35.859562820917084
        ]
      }
    },
    {
      "type": "Feature",
      "properties": {
        "norad_id": 33850,
        "name": "IRIDIUM 33 DEB",
        "group": "iridium-33-debris",
        "lat": 53.562055163183594,
        "lon": 37.8767234553926,
        "alt_km": 751.4393093041881,
        "timestamp": "2025-12-06T09:34:17.299084+00:00",
        "meta_object_name": "IRIDIUM 33 DEB",
        "meta_object_id": "1997-051T",
        "meta_epoch": "2025-12-05T15:32:06.083232",
        "meta_mean_motion": 14.42123822,
        "meta_eccentricity": 0.00115072,
        "meta_inclination": 86.3424,
        "meta_ra_of_asc_node": 33.2293,
        "meta_arg_of_pericenter": 183.1131,
        "meta_mean_anomaly": 291.637,
        "meta_ephemeris_type": 0,
        "meta_classification_type": "U",
        "meta_norad_cat_id": 33850,
        "meta_element_set_no": 999,
        "meta_rev_at_epoch": 88050,
        "meta_bstar": 0.00076178787,
        "meta_mean_motion_dot": 2.525e-05,
        "meta_mean_motion_ddot": 0,
        "tle_line1": "1 33850U 97051T   25339.64729263  .00002525  00000+0  76179-3 0  9998",
        "tle_line2": "2 33850  86.3424  33.2293 0011507 183.1131 291.6370 14.42123822880500"
      },
      "geometry": {
        "type": "Point",
        "coordinates": [
          37.8767234553926,
          53.562055163183594
        ]
      }
    },
    {
      "type": "Feature",
      "properties": {
        "norad_id": 33853,
        "name": "IRIDIUM 33 DEB",
        "group": "iridium-33-debris",
        "lat": -18.294923463810637,
        "lon": -8.733058319651906,
        "alt_km": 889.5265959941735,
        "timestamp": "2025-12-06T09:34:17.299097+00:00",
        "meta_object_name": "IRIDIUM 33 DEB",
        "meta_object_id": "1997-051W",
        "meta_epoch": "2025-12-05T12:05:32.774784",
        "meta_mean_motion": 13.98990964,
        "meta_eccentricity": 0.02067943,
        "meta_inclination": 85.9999,
        "meta_ra_of_asc_node": 352.9847,
        "meta_arg_of_pericenter": 258.2048,
        "meta_mean_anomaly": 256.5867,
        "meta_ephemeris_type": 0,
        "meta_classification_type": "U",
        "meta_norad_cat_id": 33853,
        "meta_element_set_no": 999,
        "meta_rev_at_epoch": 85244,
        "meta_bstar": 0.0039270019,
        "meta_mean_motion_dot": 6.83e-05,
        "meta_mean_motion_ddot": 0,
        "tle_line1": "1 33853U 97051W   25339.50385156  .00006830  00000+0  39270-2 0  9998",
        "tle_line2": "2 33853  85.9999 352.9847 0206794 258.2048 256.5867 13.98990964852448"
      },
      "geometry": {
        "type": "Point",
        "coordinates": [
          -8.733058319651906,
          -18.294923463810637
        ]
      }
    }
  ]
}